ELEKTRO-L 4             
1 55506U 23016A   23064.08929006 -.00000058  00000+0  00000+0 0  9994
2 55506   0.4976 285.9798 0011552  51.0174  22.9224  1.00324630   289
BLOCK DM-SL R/B         
1 55507U 23016B   23063.50223276 -.00000052  00000+0  00000+0 0  9991
2 55507   0.3711 275.9762 0096542  29.6746  53.4298  1.03218356   284
AMAZONAS NEXUS          
1 55508U 23017A   23059.03358040 -.00000536  00000+0  00000+0 0  9991
2 55508  17.1383 347.8377 7613036 184.1774 160.3234  1.03879956   259
FALCON 9 R/B            
1 55509U 23017B   23048.05522156  .00001006  00000+0  23504-2 0  9992
2 55509  24.9411 349.6435 8170614 181.2257 173.4294  1.25162264   126
PROGRESS-MS 22          
1 55560U 23018A   23063.56245575  .00021979  00000+0  39654-3 0  9995
2 55560  51.6414 126.7877 0005937  54.4365  91.8432 15.49660777385569
EOS-7                   
1 55562U 23019A   23064.19539633  .00048615  00000+0  11063-2 0  9998
2 55562  37.1847 329.8322 0008856 186.6703 173.3939 15.41950193  3547
AZAADISAT-2             
1 55563U 23019B   23064.17522888  .00060318  00000+0  12909-2 0  9995
2 55563  37.1842 329.6609 0013628 196.7775 163.2536 15.43654014  3550
JANUS-1                 
1 55564U 23019C   23064.17232762  .00133074  00000+0  26948-2 0  9993
2 55564  37.1853 329.6402 0011214 204.7878 155.2344 15.44999600  3559
SS3 R/B                 
1 55565U 23019D   23064.15506964  .00048940  00000+0  84067-3 0  9994
2 55565  37.1850 328.5349 0040104 182.1655 177.8937 15.49226113  3552
VTM R/B                 
1 55566U 23019E   23064.18871116  .00029798  00000+0  47127-3 0  9998
2 55566  37.9013 330.3355 0052011 204.5383 155.2914 15.51038842  3566
SS3 DEB                 
1 55567U 23019F   23064.36404950  .01149196  00000+0  64379-2 0  9990
2 55567  37.1820 324.5506 0038746 205.9796 153.9028 15.74829675  3120
SS3 DEB                 
1 55568U 23019G   23064.15732793  .00650777  00000+0  54656-2 0  9995
2 55568  37.1871 326.6571 0041283 198.6760 161.2493 15.66009133  3578
STARLINK-5749           
1 55569U 23020A   23064.58334491 -.01186891  00000+0 -18475-1 0  9990
2 55569  42.9972 227.8299 0001490 264.5735 335.4603 15.56022373  1302
STARLINK-5737           
1 55570U 23020B   23064.58334491 -.01204351  00000+0 -18786-1 0  9999
2 55570  42.9979 227.8342 0001303 269.2553 329.7129 15.56012223  1305
STARLINK-5739           
1 55571U 23020C   23064.58334491 -.01238005  00000+0 -19001-1 0  9994
2 55571  42.9968 227.8274 0001296 270.8543 330.2323 15.56065007  1307
STARLINK-5732           
1 55572U 23020D   23064.58334491 -.01212619  00000+0 -18865-1 0  9995
2 55572  42.9982 227.8239 0001328 266.9666 336.2425 15.56103498  1309
STARLINK-5738           
1 55573U 23020E   23064.58334491 -.01232940  00000+0 -18903-1 0  9998
2 55573  42.9971 227.8248 0001317 266.9701 335.1789 15.56082843  1307
STARLINK-5747           
1 55574U 23020F   23064.58334491 -.01207748  00000+0 -18739-1 0  9994
2 55574  42.9981 227.8159 0001128 266.3534 340.0317 15.56164375  1301
STARLINK-5745           
1 55575U 23020G   23064.58334491 -.01201903  00000+0 -18669-1 0  9994
2 55575  42.9979 227.8195 0001350 258.3598 345.9113 15.56118090  1308
STARLINK-5751           
1 55576U 23020H   23064.58334491 -.00021808  00000+0 -16316-3 0  9997
2 55576  42.9999 227.2287 0001549 268.2252 215.6773 15.71373976  1302
STARLINK-5752           
1 55577U 23020J   23064.58334491 -.00791428  00000+0 -99038-2 0  9991
2 55577  42.9975 227.7312 0001556 287.4543 352.8581 15.61505599  1303
STARLINK-5713           
1 55578U 23020K   23064.58334491 -.01212455  00000+0 -18799-1 0  9995
2 55578  42.9979 227.8095 0001357 265.0827 343.6076 15.56192697  1305
STARLINK-5754           
1 55579U 23020L   23064.58334491 -.01213548  00000+0 -18797-1 0  9998
2 55579  42.9975 227.7970 0001295 264.5014 348.9928 15.56222864  1300
STARLINK-5757           
1 55580U 23020M   23064.49740844  .00021322  00000+0  16542-3 0  9995
2 55580  42.9997 227.7382 0002094 254.2741 105.7896 15.71384757  3362
STARLINK-5753           
1 55581U 23020N   23064.58334491 -.01233863  00000+0 -18856-1 0  9999
2 55581  42.9976 227.8116 0000871 262.5733 345.0546 15.56174646  1300
STARLINK-5741           
1 55582U 23020P   23064.49993792  .00144976  00000+0  10883-2 0  9991
2 55582  43.0016 227.7727 0002005 264.0825  95.9815 15.71388996  3365
STARLINK-5742           
1 55583U 23020Q   23064.58334491 -.01234675  00000+0 -18864-1 0  9992
2 55583  42.9975 227.8056 0001342 260.8840 349.2467 15.56179038  1306
STARLINK-5736           
1 55584U 23020R   23064.58334491 -.01211861  00000+0 -18799-1 0  9992
2 55584  42.9979 227.8037 0001314 267.3224 344.0596 15.56178515  1302
STARLINK-5769           
1 55585U 23020S   23064.50045206  .00090403  00000+0  68479-3 0  9994
2 55585  43.0015 227.7721 0002054 263.9737  96.0897 15.71375147  3361
STARLINK-5767           
1 55586U 23020T   23064.66667824 -.01190508  00000+0 -18544-1 0  9994
2 55586  42.9979 227.3053 0001385 265.7206  96.2304 15.56014120  3381
STARLINK-5727           
1 55587U 23020U   23064.58334491 -.00788977  00000+0 -98870-2 0  9990
2 55587  42.9979 227.7168 0001427 276.0149  10.5090 15.61462841  1305
STARLINK-5728           
1 55588U 23020V   23064.58334491 -.01213024  00000+0 -18727-1 0  9990
2 55588  42.9983 227.7887 0001340 270.1015 347.6104 15.56309091  1301
STARLINK-5697           
1 55589U 23020W   23064.58334491 -.01237070  00000+0 -18840-1 0  9994
2 55589  42.9978 227.7925 0001344 259.9432 355.6591 15.56269795  1306
STARLINK-5762           
1 55590U 23020X   23064.58334491 -.01237311  00000+0 -18784-1 0  9991
2 55590  42.9988 227.7828 0001135 254.6572   5.1565 15.56356531  1309
STARLINK-5760           
1 55591U 23020Y   23064.58334491 -.01235635  00000+0 -18802-1 0  9990
2 55591  42.9979 227.7898 0001304 266.3108 350.3466 15.56289993  1302
STARLINK-5759           
1 55592U 23020Z   23064.58334491 -.01190322  00000+0 -18286-1 0  9990
2 55592  42.9986 227.7786 0001534 264.2431 357.6807 15.56381858  1300
STARLINK-5703           
1 55593U 23020AA  23064.58334491 -.01212940  00000+0 -18711-1 0  9995
2 55593  42.9979 227.7850 0001270 268.4824 350.2825 15.56330432  1305
STARLINK-5750           
1 55594U 23020AB  23064.58334491 -.01214896  00000+0 -18684-1 0  9997
2 55594  42.9986 227.7760 0001120 260.8460   2.1223 15.56418037  1303
STARLINK-5740           
1 55595U 23020AC  23064.58334491 -.01263816  00000+0 -19347-1 0  9991
2 55595  42.9981 227.7788 0000776 267.6619 353.7404 15.56192420  1307
STARLINK-5729           
1 55596U 23020AD  23064.58334491 -.01241983  00000+0 -18824-1 0  9992
2 55596  42.9985 227.7726 0001296 270.0751 354.3372 15.56408839  1302
STARLINK-5743           
1 55597U 23020AE  23064.50034482  .00129026  00000+0  97125-3 0  9995
2 55597  43.0018 227.7713 0002418 265.1564  94.9028 15.71377307  3367
STARLINK-5756           
1 55598U 23020AF  23064.58334491  .00021490  00000+0  16695-3 0  9996
2 55598  42.9995 226.9241 0001556 257.5326 349.5459 15.71348032  1302
STARLINK-5761           
1 55599U 23020AG  23064.59925065 -.00044001  00000+0 -33305-3 0  9993
2 55599  42.9994 226.7682 0001673 249.5487 110.5201 15.71412557  3383
STARLINK-5755           
1 55600U 23020AH  23064.50840878  .00065238  00000+0  49634-3 0  9990
2 55600  42.9994 227.8287 0001774 265.8313  94.2352 15.71388876  3369
STARLINK-5744           
1 55601U 23020AJ  23064.58334491 -.01242549  00000+0 -18818-1 0  9991
2 55601  42.9985 227.7693 0001294 269.2651 356.1972 15.56430686  1300
STARLINK-5764           
1 55602U 23020AK  23064.59590882  .00020558  00000+0  15963-3 0  9992
2 55602  43.0001 226.7413 0001910 266.6230  93.4419 15.71384756  3380
STARLINK-5735           
1 55603U 23020AL  23064.50862042  .00073066  00000+0  55485-3 0  9999
2 55603  42.9991 227.8288 0002483 256.8491 103.2100 15.71392095  3365
STARLINK-5748           
1 55604U 23020AM  23064.50237153  .00126928  00000+0  95511-3 0  9999
2 55604  42.9999 227.7828 0001899 262.9349  97.1303 15.71394066  3369
STARLINK-5725           
1 55605U 23020AN  23064.50830280  .00064684  00000+0  49219-3 0  9994
2 55605  42.9989 227.8262 0002309 260.2991  99.7616 15.71387598  3360
STARLINK-5723           
1 55606U 23020AP  23064.58334491  .00375257  62510-4  99951-3 0  9994
2 55606  42.9979 224.7913 0013384  81.7095 297.1607 15.93603957  1305
STARLINK-5700           
1 55607U 23020AQ  23064.50799133  .00021478  00000+0  16673-3 0  9999
2 55607  42.9990 227.8240 0001783 265.2710  94.7954 15.71366285  3369
STARLINK-5726           
1 55608U 23020AR  23064.50778029  .00121221  00000+0  91371-3 0  9996
2 55608  42.9993 227.8225 0003519 274.1192  85.9274 15.71369935  3360
STARLINK-5719           
1 55609U 23020AS  23064.50820005  .00048286  00000+0  36926-3 0  9993
2 55609  42.9989 227.8259 0002158 263.3334  96.7288 15.71371559  3369
STARLINK-5722           
1 55610U 23020AT  23064.50735511  .00064563  00000+0  49124-3 0  9992
2 55610  42.9988 227.8202 0002831 253.2011 106.8547 15.71388033  3362
STARLINK-5730           
1 55611U 23020AU  23064.50746268  .00076415  00000+0  57997-3 0  9990
2 55611  42.9993 227.8204 0002289 251.4388 108.6231 15.71389510  3366
STARLINK-5734           
1 55612U 23020AV  23064.50725273  .00023348  00000+0  18089-3 0  9990
2 55612  42.9988 227.8169 0002261 253.9554 106.1065 15.71367561  3363
STARLINK-5715           
1 55613U 23020AW  23064.50767580  .00063502  00000+0  48356-3 0  9994
2 55613  42.9981 227.8209 0001770 257.5768 102.4902 15.71377117  3360
STARLINK-5714           
1 55614U 23020AX  23064.48939309  .00154862  00000+0  99313-3 0  9991
2 55614  42.9994 227.6755 0004725 314.9579  45.0907 15.75021982  3367
STARLINK-5712           
1 55615U 23020AY  23064.50714714  .00061085  00000+0  46533-3 0  9996
2 55615  42.9989 227.8177 0002634 268.6123  91.4443 15.71379865  3361
